{"fetched_at":"2026-03-29T16:36:15Z","count":15609,"tles":[{"name":"STARLINK-34886","line1":"1 65683U 25212H   26087.87769777  .00032948  00000+0  11195-2 0  9995","line2":"2 65683  53.1579 256.3825 0000949  92.9724 267.1385 15.30203481 30132","category":"Starlink"}]}