{
  "norad_id": 65683,
  "name": "STARLINK-34886",
  "history": [
    {
      "epoch": "2026-03-28T21:03:53.087328",
      "apogee_km": 475.8550579255134,
      "perigee_km": 474.5542936754473,
      "latitude_deg": 49.05800987737602,
      "longitude_deg": 112.55898591992445,
      "semi_major_axis_km": 6853.3416758004805,
      "eccentricity": 9.49e-05,
      "inclination_deg": 53.1579,
      "raan_deg": 256.3825,
      "arg_perigee_deg": 92.9724,
      "mean_anomaly_deg": 267.1385,
      "mean_motion_rev_day": 15.30203481
    }
  ]
}